{"type": "FeatureCollection", "features": [ {"type": "Feature", "properties": {"norad_id": 42917, "name": "QZS-3 (QZSS/PRN 199)", "group": "gnss", "lat": 0.015961955497775862, "lon": -102.82340257912286, "alt_km": 35775.825432418314, "timestamp": "2025-12-04T03:47:54.788653+00:00", "meta": {"OBJECT_NAME": "QZS-3 (QZSS/PRN 199)", "OBJECT_ID": "2017-048A", "EPOCH": "2025-12-03T17:35:49.983360", "MEAN_MOTION": 1.00275829, "ECCENTRICITY": 0.0002168, "INCLINATION": 0.0732, "RA_OF_ASC_NODE": 221.3034, "ARG_OF_PERICENTER": 34.3897, "MEAN_ANOMALY": 208.0607, "EPHEMERIS_TYPE": 0, "CLASSIFICATION_TYPE": "U", "NORAD_CAT_ID": 42917, "ELEMENT_SET_NO": 999, "REV_AT_EPOCH": 3029, "BSTAR": 0, "MEAN_MOTION_DOT": -3.3e-06, "MEAN_MOTION_DDOT": 0}, "tle": {"line1": "1 42917U 17048A   25337.73321740 -.00000330  00000+0  00000+0 0  9995", "line2": "2 42917   0.0732 221.3034 0002168  34.3897 208.0607  1.00275829 30294"}}, "geometry": {"type": "Point", "coordinates": [-102.82340257912286, 0.015961955497775862]}}, {"type": "Feature", "properties": {"norad_id": 42939, "name": "COSMOS 2522 (752)", "group": "gnss", "lat": -8.482523536402214, "lon": 22.683239525639937, "alt_km": 19118.13629937329, "timestamp": "2025-12-04T03:47:54.788664+00:00", "meta": {"OBJECT_NAME": "COSMOS 2522 (752)", "OBJECT_ID": "2017-055A", "EPOCH": "2025-12-02T23:20:47.282208", "MEAN_MOTION": 2.1310185, "ECCENTRICITY": 0.00065327, "INCLINATION": 64.0758, "RA_OF_ASC_NODE": 198.5618, "ARG_OF_PERICENTER": 226.0683, "MEAN_ANOMALY": 133.9743, "EPHEMERIS_TYPE": 0, "CLASSIFICATION_TYPE": "U", "NORAD_CAT_ID": 42939, "ELEMENT_SET_NO": 999, "REV_AT_EPOCH": 6379, "BSTAR": 0, "MEAN_MOTION_DOT": 1.07e-06, "MEAN_MOTION_DDOT": 0}, "tle": {"line1": "1 42939U 17055A   25336.97276947  .00000107  00000+0  00000+0 0  9991", "line2": "2 42939  64.0758 198.5618 0006532 226.0683 133.9743  2.13101850 63796"}}, "geometry": {"type": "Point", "coordinates": [22.683239525639937, -8.482523536402214]}}, {"type": "Feature", "properties": {"norad_id": 42965, "name": "QZS-4 (QZSS/PRN 195)", "group": "gnss", "lat": -38.98588909511677, "lon": -87.24025401474985, "alt_km": 32664.179516607783, "timestamp": "2025-12-04T03:47:54.788696+00:00", "meta": {"OBJECT_NAME": "QZS-4 (QZSS/PRN 195)", "OBJECT_ID": "2017-062A", "EPOCH": "2025-12-02T08:37:38.758368", "MEAN_MOTION": 1.0025504, "ECCENTRICITY": 0.07524683, "INCLINATION": 40.2317, "RA_OF_ASC_NODE": 346.0052, "ARG_OF_PERICENTER": 271.2474, "MEAN_ANOMALY": 80.8165, "EPHEMERIS_TYPE": 0, "CLASSIFICATION_TYPE": "U", "NORAD_CAT_ID": 42965, "ELEMENT_SET_NO": 999, "REV_AT_EPOCH": 2983, "BSTAR": 0, "MEAN_MOTION_DOT": -3.15e-06, "MEAN_MOTION_DDOT": 0}, "tle": {"line1": "1 42965U 17062A   25336.35947637 -.00000315  00000+0  00000+0 0  9993", "line2": "2 42965  40.2317 346.0052 0752468 271.2474  80.8165  1.00255040 29831"}}, "geometry": {"type": "Point", "coordinates": [-87.24025401474985, -38.98588909511677]}}, {"type": "Feature", "properties": {"norad_id": 43001, "name": "BEIDOU-3 M1 (C19)", "group": "gnss", "lat": -32.64624129284637, "lon": 44.47438887414848, "alt_km": 21508.517850745015, "timestamp": "2025-12-04T03:47:54.788711+00:00", "meta": {"OBJECT_NAME": "BEIDOU-3 M1 (C19)", "OBJECT_ID": "2017-069A", "EPOCH": "2025-12-03T03:27:53.485056", "MEAN_MOTION": 1.86230745, "ECCENTRICITY": 0.00088373, "INCLINATION": 56.5186, "RA_OF_ASC_NODE": 69.5514, "ARG_OF_PERICENTER": 303.7187, "MEAN_ANOMALY": 56.1997, "EPHEMERIS_TYPE": 0, "CLASSIFICATION_TYPE": "U", "NORAD_CAT_ID": 43001, "ELEMENT_SET_NO": 999, "REV_AT_EPOCH": 5495, "BSTAR": 0, "MEAN_MOTION_DOT": -4.9e-07, "MEAN_MOTION_DDOT": 0}, "tle": {"line1": "1 43001U 17069A   25337.14436904 -.00000049  00000+0  00000+0 0  9994", "line2": "2 43001  56.5186  69.5514 0008837 303.7187  56.1997  1.86230745 54952"}}, "geometry": {"type": "Point", "coordinates": [44.47438887414848, -32.64624129284637]}}, {"type": "Feature", "properties": {"norad_id": 43002, "name": "BEIDOU-3 M2 (C20)", "group": "gnss", "lat": 0.9166516971761215, "lon": 70.16197897047813, "alt_km": 21513.176869945735, "timestamp": "2025-12-04T03:47:54.788723+00:00", "meta": {"OBJECT_NAME": "BEIDOU-3 M2 (C20)", "OBJECT_ID": "2017-069B", "EPOCH": "2025-12-01T11:19:28.056000", "MEAN_MOTION": 1.86230616, "ECCENTRICITY": 0.00061649, "INCLINATION": 56.5166, "RA_OF_ASC_NODE": 69.6425, "ARG_OF_PERICENTER": 332.397, "MEAN_ANOMALY": 27.5733, "EPHEMERIS_TYPE": 0, "CLASSIFICATION_TYPE": "U", "NORAD_CAT_ID": 43002, "ELEMENT_SET_NO": 999, "REV_AT_EPOCH": 5491, "BSTAR": 0, "MEAN_MOTION_DOT": -4.1e-07, "MEAN_MOTION_DDOT": 0}, "tle": {"line1": "1 43002U 17069B   25335.47185250 -.00000041  00000+0  00000+0 0  9996", "line2": "2 43002  56.5166  69.6425 0006164 332.3970  27.5733  1.86230616 54915"}}, "geometry": {"type": "Point", "coordinates": [70.16197897047813, 0.9166516971761215]}}, {"type": "Feature", "properties": {"norad_id": 43055, "name": "GSAT0215 (GALILEO 19)", "group": "gnss", "lat": -49.963638823728914, "lon": 170.91817259899534, "alt_km": 23223.353154950008, "timestamp": "2025-12-04T03:47:54.788733+00:00", "meta": {"OBJECT_NAME": "GSAT0215 (GALILEO 19)", "OBJECT_ID": "2017-079A", "EPOCH": "2025-11-29T13:52:03.216864", "MEAN_MOTION": 1.70473718, "ECCENTRICITY": 0.0001588, "INCLINATION": 55.1353, "RA_OF_ASC_NODE": 227.0004, "ARG_OF_PERICENTER": 310.5234, "MEAN_ANOMALY": 49.536, "EPHEMERIS_TYPE": 0, "CLASSIFICATION_TYPE": "U", "NORAD_CAT_ID": 43055, "ELEMENT_SET_NO": 999, "REV_AT_EPOCH": 4958, "BSTAR": 0, "MEAN_MOTION_DOT": 2.7e-07, "MEAN_MOTION_DDOT": 0}, "tle": {"line1": "1 43055U 17079A   25333.57781501  .00000027  00000+0  00000+0 0  9998", "line2": "2 43055  55.1353 227.0004 0001588 310.5234  49.5360  1.70473718 49587"}}, "geometry": {"type": "Point", "coordinates": [170.91817259899534, -49.963638823728914]}}, {"type": "Feature", "properties": {"norad_id": 43056, "name": "GSAT0216 (GALILEO 20)", "group": "gnss", "lat": 49.378231695139284, "lon": -7.381211835469084, "alt_km": 23223.879406687596, "timestamp": "2025-12-04T03:47:54.788745+00:00", "meta": {"OBJECT_NAME": "GSAT0216 (GALILEO 20)", "OBJECT_ID": "2017-079B", "EPOCH": "2025-12-01T01:00:54.249120", "MEAN_MOTION": 1.70473856, "ECCENTRICITY": 0.00027137, "INCLINATION": 55.1346, "RA_OF_ASC_NODE": 226.9601, "ARG_OF_PERICENTER": 312.5245, "MEAN_ANOMALY": 47.5297, "EPHEMERIS_TYPE": 0, "CLASSIFICATION_TYPE": "U", "NORAD_CAT_ID": 43056, "ELEMENT_SET_NO": 999, "REV_AT_EPOCH": 4962, "BSTAR": 0, "MEAN_MOTION_DOT": 3.1e-07, "MEAN_MOTION_DDOT": 0}, "tle": {"line1": "1 43056U 17079B   25335.04229455  .00000031  00000+0  00000+0 0  9993", "line2": "2 43056  55.1346 226.9601 0002713 312.5245  47.5297  1.70473856 49621"}}, "geometry": {"type": "Point", "coordinates": [-7.381211835469084, 49.378231695139284]}}, {"type": "Feature", "properties": {"norad_id": 43057, "name": "GSAT0217 (GALILEO 21)", "group": "gnss", "lat": -18.824706749064966, "lon": -146.85538471360556, "alt_km": 23217.439813329336, "timestamp": "2025-12-04T03:47:54.788761+00:00", "meta": {"OBJECT_NAME": "GSAT0217 (GALILEO 21)", "OBJECT_ID": "2017-079C", "EPOCH": "2025-12-02T10:28:08.868000", "MEAN_MOTION": 1.70473685, "ECCENTRICITY": 0.00026117, "INCLINATION": 55.1312, "RA_OF_ASC_NODE": 226.9197, "ARG_OF_PERICENTER": 354.1722, "MEAN_ANOMALY": 5.9091, "EPHEMERIS_TYPE": 0, "CLASSIFICATION_TYPE": "U", "NORAD_CAT_ID": 43057, "ELEMENT_SET_NO": 999, "REV_AT_EPOCH": 4963, "BSTAR": 0, "MEAN_MOTION_DOT": 3.7e-07, "MEAN_MOTION_DDOT": 0}, "tle": {"line1": "1 43057U 17079C   25336.43621375  .00000037  00000+0  00000+0 0  9991", "line2": "2 43057  55.1312 226.9197 0002611 354.1722   5.9091  1.70473685 49635"}}, "geometry": {"type": "Point", "coordinates": [-146.85538471360556, -18.824706749064966]}}, {"type": "Feature", "properties": {"norad_id": 43058, "name": "GSAT0218 (GALILEO 22)", "group": "gnss", "lat": -17.75319682006395, "lon": 59.75446950802002, "alt_km": 23226.539958652516, "timestamp": "2025-12-04T03:47:54.788776+00:00", "meta": {"OBJECT_NAME": "GSAT0218 (GALILEO 22)", "OBJECT_ID": "2017-079D", "EPOCH": "2025-12-03T05:49:40.296864", "MEAN_MOTION": 1.70473824, "ECCENTRICITY": 0.0002917, "INCLINATION": 55.1321, "RA_OF_ASC_NODE": 226.8951, "ARG_OF_PERICENTER": 304.1404, "MEAN_ANOMALY": 55.9211, "EPHEMERIS_TYPE": 0, "CLASSIFICATION_TYPE": "U", "NORAD_CAT_ID": 43058, "ELEMENT_SET_NO": 999, "REV_AT_EPOCH": 4967, "BSTAR": 0, "MEAN_MOTION_DOT": 3.9e-07, "MEAN_MOTION_DDOT": 0}, "tle": {"line1": "1 43058U 17079D   25337.24282751  .00000039  00000+0  00000+0 0  9995", "line2": "2 43058  55.1321 226.8951 0002917 304.1404  55.9211  1.70473824 49672"}}, "geometry": {"type": "Point", "coordinates": [59.75446950802002, -17.75319682006395]}}, {"type": "Feature", "properties": {"norad_id": 43107, "name": "BEIDOU-3 M7 (C27)", "group": "gnss", "lat": 5.363390403130209, "lon": 125.25207336079222, "alt_km": 21529.028176629035, "timestamp": "2025-12-04T03:47:54.788787+00:00", "meta": {"OBJECT_NAME": "BEIDOU-3 M7 (C27)", "OBJECT_ID": "2018-003A", "EPOCH": "2025-12-02T06:56:05.635968", "MEAN_MOTION": 1.86232265, "ECCENTRICITY": 0.0002591, "INCLINATION": 54.5061, "RA_OF_ASC_NODE": 309.1785, "ARG_OF_PERICENTER": 70.8685, "MEAN_ANOMALY": 289.1495, "EPHEMERIS_TYPE": 0, "CLASSIFICATION_TYPE": "U", "NORAD_CAT_ID": 43107, "ELEMENT_SET_NO": 999, "REV_AT_EPOCH": 5368, "BSTAR": 0, "MEAN_MOTION_DOT": -6.3e-07, "MEAN_MOTION_DDOT": 0}, "tle": {"line1": "1 43107U 18003A   25336.28895412 -.00000063  00000+0  00000+0 0  9993", "line2": "2 43107  54.5061 309.1785 0002591  70.8685 289.1495  1.86232265 53687"}}, "geometry": {"type": "Point", "coordinates": [125.25207336079222, 5.363390403130209]}}]}